INTELSAT 10 (IS-10)     
1 26766U 01019A   25317.29293201 -.00000011  00000+0  00000+0 0  9995
2 26766   8.5589  61.4494 0006825 210.7101 151.4351  0.99074020 43441
INTELSAT 902 (IS-902)   
1 26900U 01039A   25317.30168541 -.00000282  00000+0  00000+0 0  9997
2 26900   5.5706  74.4153 0004432 154.6594 242.1266  1.00272335 88533
INTELSAT 904 (IS-904)   
1 27380U 02007A   25317.16275794 -.00000224  00000+0  00000+0 0  9995
2 27380   6.3802  71.7715 0001276 140.5436 227.3418  1.00270945 49602
DIRECTV 5 (TEMPO 1)     
1 27426U 02023A   25317.50390535 -.00000055  00000+0  00000+0 0  9995
2 27426   4.3263  77.9991 0003175 157.8204 248.3525  1.00272277 85961
INTELSAT 905 (IS-905)   
1 27438U 02027A   25317.49853198  .00000096  00000+0  00000+0 0  9993
2 27438   6.2113  72.3936 0002677 166.5933 216.1749  1.00273683 49209
GALAXY 3C (G-3C)        
1 27445U 02030A   25317.57826579 -.00000151  00000+0  00000+0 0  9990
2 27445   3.1899  80.8029 0001390  84.1740   1.3069  1.00271338 44336
INTELSAT 906 (IS-906)   
1 27513U 02041A   25317.39571929  .00000014  00000+0  00000+0 0  9991
2 27513   5.2528  75.5772 0005620 183.4347   0.3621  1.00272242 84866
GALAXY 13 (HORIZONS-1)  
1 27954U 03044A   25317.56734572  .00000133  00000+0  00000+0 0  9990
2 27954   0.8581  86.8319 0002123 139.8347 240.5305  1.00272262 44413
INTELSAT 10-02          
1 28358U 04022A   25317.38280588 -.00000012  00000+0  00000+0 0  9996
2 28358   0.0410  81.4233 0000928 183.0096 285.1643  1.00270520 78393
XM-3 (RHYTHM)           
1 28626U 05008A   25317.57575244  .00000044  00000+0  00000+0 0  9990
2 28626   0.0967  77.3549 0000432   4.4505  71.1402  0.98950345 40462
DIRECTV 8               
1 28659U 05019A   25317.57349910  .00000000  00000+0  00000+0 0  9999
2 28659   0.0123 295.0126 0003089 305.5525 259.7946  1.00271538 74918
GALAXY 28 (G-28)        
1 28702U 05022A   25317.57947913 -.00000186  00000+0  00000+0 0  9995
2 28702   2.7419  81.6165 0002051 180.3999 270.8621  1.00270926 49813
GALAXY 16 (G-16)        
1 29236U 06023A   25317.57739912 -.00000128  00000+0  00000+0 0  9994
2 29236   0.0501 103.5510 0002693 127.8642 290.4042  1.00271792 70811
DIRECTV 9S              
1 29494U 06043A   25317.50563869 -.00000113  00000+0  00000+0 0  9995
2 29494   1.8632  83.5259 0003133 154.7692 255.4153  1.00272258 49225
GALAXY 17 (G-17)        
1 31307U 07016B   25317.50884538 -.00000206  00000+0  00000+0 0  9994
2 31307   2.4248  82.6242 0006306 158.7725 269.6915  1.00271969 67646
DIRECTV 10              
1 31862U 07032A   25317.57661911 -.00000103  00000+0  00000+0 0  9999
2 31862   0.0012 226.1521 0000271 153.4308 138.1745  1.00267991 43436
INTELSAT 11 (IS-11)     
1 32253U 07044B   25317.31069880 -.00000189  00000+0  00000+0 0  9990
2 32253   3.0021  81.3110 0009154 151.2602 287.0811  0.99053067 66315
HORIZONS-2              
1 32388U 07063B   25317.51109873 -.00000253  00000+0  00000+0 0  9991
2 32388   2.0445  83.2835 0004561 172.5666 267.2538  1.00270444 65656
DIRECTV 11              
1 32729U 08013A   25317.29197867 -.00000127  00000+0  00000+0 0  9991
2 32729   0.0263 129.7666 0000083 106.3806 182.4414  1.00269643 43426
GALAXY 18 (G-18)        
1 32951U 08024A   25317.57271909  .00000024  00000+0  00000+0 0  9996
2 32951   0.0276  64.8789 0003128 173.1745 258.0663  1.00272132 43691
INTELSAT 25 (IS-25)     
1 33153U 08034A   25317.37673918 -.00000224  00000+0  00000+0 0  9999
2 33153   2.1507  82.9790 0005115 166.6579 267.2548  1.00270687 63531
GALAXY 19 (G-19)        
1 33376U 08045A   25317.29241201 -.00000141  00000+0  00000+0 0  9993
2 33376   0.0141  39.5665 0003001 201.6820 179.6832  1.00270642 62733
FM-5                    
1 35493U 09034A   25317.50867205 -.00000201  00000+0  00000+0 0  9993
2 35493   0.0141 277.4085 0000358 235.9945 356.4581  1.00269946 44487
INTELSAT 14 (IS-14)     
1 36097U 09064A   25317.30272541 -.00000275  00000+0  00000+0 0  9999
2 36097   0.0091 335.7336 0002499 252.4890 248.4443  1.00272920 58444
INTELSAT 15 (IS-15)     
1 36106U 09067A   25317.54264558 -.00000186  00000+0  00000+0 0  9999
2 36106   0.0134 284.5367 0002409 315.6049  93.2836  1.00273162 39065
DIRECTV 12              
1 36131U 09075A   25317.57661911 -.00000104  00000+0  00000+0 0  9993
2 36131   0.0461  90.5647 0000316 194.0426 233.2243  1.00272608 44399
INTELSAT 16 (IS-16)     
1 36397U 10006A   25317.36824579 -.00000246  00000+0  00000+0 0  9998
2 36397   0.0106 297.9205 0002186 297.4961 233.7036  1.00272583 57493
XM-5                    
1 37185U 10053A   25317.50286534 -.00000024  00000+0  00000+0 0  9999
2 37185   0.0550 271.3509 0000698 227.7720 339.5915  1.00272288 55323
INTELSAT 17 (IS-17)     
1 37238U 10065B   25317.59987022 -.00000002  00000+0  00000+0 0  9996
2 37238   0.0101 262.3630 0002362 332.4428 100.1360  1.00271081 51083
INTELSAT 28 (IS-28)     
1 37392U 11016A   25317.30541209 -.00000225  00000+0  00000+0 0  9993
2 37392   1.2469  85.3909 0003985 156.0251 249.5315  1.00273079 51124
INTELSAT 18 (IS-18)     
1 37834U 11056A   25317.56136568  .00000052  00000+0  00000+0 0  9991
2 37834   0.0178 277.8777 0001794 324.7323 192.4096  1.00270925 51646
INTELSAT 22 (IS-22)     
1 38098U 12011A   25317.39727931 -.00000061  00000+0  00000+0 0  9998
2 38098   0.0192 292.8775 0001769 302.3861  32.6599  1.00273568  5021
INTELSAT 19 (IS-19)     
1 38356U 12030A   25317.55859233 -.00000057  00000+0  00000+0 0  9990
2 38356   0.0194  18.9446 0003261 217.8496 183.2414  1.00271897 48282
INTELSAT 20 (IS-20)     
1 38740U 12043A   25317.39641263 -.00000026  00000+0  00000+0 0  9991
2 38740   0.0080 266.8245 0003102 272.2795  84.8943  1.00270655 48582
INTELSAT 21 (IS-21)     
1 38749U 12045A   25317.51421875 -.00000286  00000+0  00000+0 0  9999
2 38749   0.0142 298.6308 0001856 287.1378 314.2400  1.00273751 48363
INTELSAT 23 (IS-23)     
1 38867U 12057A   25317.37249249 -.00000286  00000+0  00000+0 0  9990
2 38867   0.0182 266.9197 0001648 359.3359 227.5937  1.00268483 47795
FM-6                    
1 39360U 13058A   25317.50269200 -.00000018  00000+0  00000+0 0  9998
2 39360   0.0228 136.2716 0002642  37.8296 303.5954  1.00272936 43916
INTELSAT 30 (IS-30)     
1 40271U 14062A   25317.36408576 -.00000152  00000+0  00000+0 0  9991
2 40271   0.0257  34.7481 0001309  27.1919  26.8189  1.00270425  4626
DIRECTV 14              
1 40333U 14078B   25316.43579622 -.00000129  00000+0  00000+0 0  9999
2 40333   0.0183 278.9031 0000224 278.3330 272.2597  1.00272468 39872
DIRECTV 15              
1 40663U 15026A   25317.50529203 -.00000103  00000+0  00000+0 0  9990
2 40663   0.0506  90.6506 0000055 103.5070 297.7539  1.00268642 38309
SKY MEXICO-1            
1 40664U 15026B   25317.29605204 -.00000236  00000+0  00000+0 0  9990
2 40664   0.0144 283.4211 0002482 323.5402 193.5252  1.00270699 38289
INTELSAT 34 (IS-34)     
1 40874U 15039A   25317.37205914 -.00000287  00000+0  00000+0 0  9996
2 40874   0.0121 287.3416 0000134 249.1418 314.7216  1.00270389 37461
INTELSAT 31 (IS-31)     
1 41581U 16035A   25317.36417243 -.00000152  00000+0  00000+0 0  9999
2 41581   0.0126 259.0931 0001688 327.8484 221.8303  1.00269877 34510
INTELSAT 36 (IS-36)     
1 41747U 16053A   25316.75446858 -.00000028  00000+0  00000+0 0  9991
2 41747   0.0142 346.0846 0001528 351.6439  54.5235  1.00271975 33776
INTELSAT 32E (IS-32E)   
1 41945U 17007B   25317.37448583 -.00000270  00000+0  00000+0 0  9996
2 41945   0.0309  63.6964 0000165 303.6713 137.0237  1.00269381 32060
INTELSAT 35E (IS-35E)   
1 42818U 17041A   25317.37613251 -.00000239  00000+0  00000+0 0  9995
2 42818   0.0158 280.5430 0002251 314.2277 278.8988  1.00272268 30659
INTELSAT 37E (IS-37E)   
1 42950U 17059A   25317.59351921  .00000000  00000+0  00000+0 0  9993
2 42950   0.0139 288.1562 0002973 304.2471  16.2139  1.00270518 29905
AZERSPACE 2 (IS-38)     
1 43632U 18074A   25317.53467220  .00000000  00000+0  00000+0 0  9993
2 43632   0.0126 286.6733 0001389 313.6671  50.1346  1.00270668 26289
HORIZONS-3E             
1 43633U 18074B   25317.55919899 -.00000032  00000+0  00000+0 0  9996
2 43633   0.0151 192.6274 0001148 107.7164 122.8830  1.00269677 26177
AT&T T-16               
1 44333U 19034A   25317.36304575  .00000000  00000+0  00000+0 0  9993
2 44333   0.0151  71.4395 0000062 341.9427  29.1662  1.00268238 23464
INTELSAT 39 (IS-39)     
1 44476U 19049B   25317.39519929  .00000032  00000+0  00000+0 0  9996
2 44476   0.0189 278.9235 0000284 229.0726 108.9915  1.00271105 22962
GALAXY 30 (G-30)        
1 46114U 20056C   25317.35819240  .00000035  00000+0  00000+0 0  9995
2 46114   0.0160 283.9964 0002245 307.5256 185.1704  1.00271399 19128
GALAXY 33 (G-33)        
1 54026U 22128A   25317.57072574  .00000078  00000+0  00000+0 0  9990
2 54026   0.0139 292.0360 0001865 303.1320 250.2462  1.00271197 11580
GALAXY 34 (G-34)        
1 54027U 22128B   25317.57150574  .00000058  00000+0  00000+0 0  9996
2 54027   0.0159 306.4152 0001436 280.4412 262.8583  1.00270401 11754
GALAXY 31 (G-31)        
1 54243U 22153A   25317.57306575  .00000012  00000+0  00000+0 0  9998
2 54243   0.0120 243.4467 0001725   4.0185 250.7911  1.00270920  4972
GALAXY 32 (G-32)        
1 54244U 22153B   25317.50771870 -.00000175  00000+0  00000+0 0  9997
2 54244   0.0092 331.5095 0001935 325.1610 207.9950  1.00271928 10984
GALAXY 35 (G-35)        
1 54741U 22170A   25317.57861245 -.00000163  00000+0  00000+0 0  9998
2 54741   0.0146 252.2471 0002375 349.7926 286.1257  1.00272038 10739
GALAXY 36 (G-36)        
1 54742U 22170B   25317.57939247 -.00000186  00000+0  00000+0 0  9992
2 54742   0.0127 226.9741 0000688 333.6272 331.9372  1.00272270 10610
GALAXY 37 (G-37)        
1 57493U 23112A   25317.35784572  .00000046  00000+0  00000+0 0  9994
2 57493   0.0180 321.5635 0002270 278.2658 174.7335  1.00272603  8372
